NORAD_CAT_ID,OBJECT_NAME,OBJECT_TYPE,EPOCH,MEAN_MOTION,ECCENTRICITY,INCLINATION,RA_OF_ASC_NODE,ARG_OF_PERICENTER,MEAN_ANOMALY,BSTAR,MEAN_MOTION_DOT,MEAN_MOTION_DDOT,TLE_LINE0,TLE_LINE1,TLE_LINE2,SEMIMAJOR_AXIS,PERIOD,APOGEE,PERIGEE,DECAYED
51870.0,STARLINK-3591,PAYLOAD,2023-08-17 18:42:12,15.08838011,0.0001336,53.2151,246.0964,90.9818,269.1327,6.0239e-05,6.71e-06,0.0,0 STARLINK-3591,1 51870U 22022U   23229.77931459  .00000671  00000-0  60239-4 0  9990,2 51870  53.2151 246.0964 0001336  90.9818 269.1327 15.08838011 82026,6917.886,95.438,540.676,538.827,0.0
51870.0,STARLINK-3591,PAYLOAD,2023-08-19 04:05:18,15.0884627,0.0001306,53.215,239.8521,93.9231,266.1911,0.00010227,1.34e-05,0.0,0 STARLINK-3591,1 51870U 22022U   23231.17035001  .00001340  00000-0  10227-3 0  9990,2 51870  53.2150 239.8521 0001306  93.9231 266.1911 15.08846270 82238,6917.861,95.437,540.63,538.823,0.0
51870.0,STARLINK-3591,PAYLOAD,2023-08-20 03:56:05,15.08836655,0.0001629,53.2145,235.3909,116.5429,243.573,7.0404e-05,8.33e-06,0.0,0 STARLINK-3591,1 51870U 22022U   23232.16395698  .00000833  00000-0  70404-4 0  9991,2 51870  53.2145 235.3909 0001629 116.5429 243.5730 15.08836655 82382,6917.891,95.438,540.883,538.629,0.0
51870.0,STARLINK-3591,PAYLOAD,2023-08-21 06:57:38,15.08847104,0.0001363,53.2156,230.3378,91.2533,268.8615,6.9091e-05,8.12e-06,0.0,0 STARLINK-3591,1 51870U 22022U   23233.29003265  .00000812  00000-0  69091-4 0  9999,2 51870  53.2156 230.3378 0001363  91.2533 268.8615 15.08847104 82551,6917.859,95.437,540.667,538.781,0.0
51870.0,STARLINK-3591,PAYLOAD,2023-08-22 03:37:40,15.08828084,0.0001352,53.216,226.4724,98.173,261.9415,6.1179e-06,-1.91e-06,0.0,0 STARLINK-3591,1 51870U 22022U   23234.15116823 -.00000191  00000-0  61179-5 0  9991,2 51870  53.2160 226.4724 0001352  98.1730 261.9415 15.08828084 82682,6917.917,95.438,540.717,538.847,0.0
51870.0,STARLINK-3591,PAYLOAD,2023-08-22 09:59:13,15.08835648,0.0001354,53.2157,225.2825,91.0998,269.015,8.1242e-05,1.005e-05,0.0,0 STARLINK-3591,1 51870U 22022U   23234.41612334  .00001005  00000-0  81242-4 0  9994,2 51870  53.2157 225.2825 0001354  91.0998 269.0150 15.08835648 82721,6917.894,95.438,540.695,538.822,0.0
51870.0,STARLINK-3591,PAYLOAD,2023-08-23 11:25:22,15.08846031,0.0001373,53.2156,220.5252,91.2091,268.9059,9.1872e-05,1.175e-05,0.0,0 STARLINK-3591,1 51870U 22022U   23235.47595887  .00001175  00000-0  91872-4 0  9992,2 51870  53.2156 220.5252 0001373  91.2091 268.9059 15.08846031 82880,6917.862,95.437,540.677,538.777,0.0
51870.0,STARLINK-3591,PAYLOAD,2023-08-24 22:23:52,15.08842133,0.0001458,53.2157,213.9821,94.6171,265.4988,7.809e-05,9.55e-06,0.0,0 STARLINK-3591,1 51870U 22022U   23236.93324393  .00000955  00000-0  78090-4 0  9998,2 51870  53.2157 213.9821 0001458  94.6171 265.4988 15.08842133 83107,6917.874,95.437,540.747,538.73,0.0
51870.0,STARLINK-3591,PAYLOAD,2023-08-25 04:45:24,15.08845897,0.0001484,53.2159,212.7928,96.7823,263.3338,7.2843e-05,8.72e-06,0.0,0 STARLINK-3591,1 51870U 22022U   23237.19820123  .00000872  00000-0  72843-4 0  9997,2 51870  53.2159 212.7928 0001484  96.7823 263.3338 15.08845897 83140,6917.862,95.437,540.754,538.701,0.0
51870.0,STARLINK-3591,PAYLOAD,2023-08-26 01:25:25,15.08842337,0.0001408,53.2158,208.927,97.6719,262.4433,7.8257e-05,9.58e-06,0.0,0 STARLINK-3591,1 51870U 22022U   23238.05932245  .00000958  00000-0  78257-4 0  9992,2 51870  53.2158 208.9270 0001408  97.6719 262.4433 15.08842337 83272,6917.873,95.437,540.712,538.764,0.0
51870.0,STARLINK-3591,PAYLOAD,2023-08-26 07:46:57,15.08845255,0.0001418,53.2158,207.7376,97.3904,262.7249,9.8125e-05,1.274e-05,0.0,0 STARLINK-3591,1 51870U 22022U   23238.32427976  .00001274  00000-0  98125-4 0  9990,2 51870  53.2158 207.7376 0001418  97.3904 262.7249 15.08845255 83315,6917.864,95.437,540.71,538.748,0.0
51870.0,STARLINK-3591,PAYLOAD,2023-08-27 01:16:13,15.08834771,0.0001586,53.2163,204.4682,99.5737,260.5434,3.2164e-06,-2.37e-06,0.0,0 STARLINK-3591,1 51870U 22022U   23239.05292918 -.00000237  00000-0  32164-5 0  9998,2 51870  53.2163 204.4682 0001586  99.5737 260.5434 15.08834771 83424,6917.896,95.438,540.859,538.664,0.0
51870.0,STARLINK-3591,PAYLOAD,2023-08-27 07:37:45,15.08840068,0.000157,53.2163,203.278,99.281,260.836,3.1754e-05,2.17e-06,0.0,0 STARLINK-3591,1 51870U 22022U   23239.31788495  .00000217  00000-0  31754-4 0  9997,2 51870  53.2163 203.2780 0001570  99.2810 260.8360 15.08840068 83463,6917.88,95.438,540.831,538.659,0.0
51870.0,STARLINK-3591,PAYLOAD,2023-08-28 13:50:04,15.08846869,0.0001351,53.2162,197.6272,91.2649,268.8498,7.3822e-05,8.87e-06,0.0,0 STARLINK-3591,1 51870U 22022U   23240.57643969  .00000887  00000-0  73822-4 0  9998,2 51870  53.2162 197.6272 0001351  91.2649 268.8498 15.08846869 83659,6917.859,95.437,540.659,538.79,0.0
51870.0,STARLINK-3591,PAYLOAD,2023-08-28 20:11:38,15.08827689,0.0002022,53.2177,196.4416,86.0123,274.1101,0.00017089,2.432e-05,0.0,0 STARLINK-3591,1 51870U 22022U   23240.84141518  .00002432  00000-0  17089-3 0  9991,2 51870  53.2177 196.4416 0002022  86.0123 274.1101 15.08827689 83691,6917.918,95.438,541.182,538.384,0.0
51870.0,STARLINK-3591,PAYLOAD,2023-08-29 00:57:47,15.0883445,0.0001413,53.2169,195.5477,104.246,255.8689,1.0299e-05,-1.24e-06,0.0,0 STARLINK-3591,1 51870U 22022U   23241.04013124 -.00000124  00000-0  10299-4 0  9999,2 51870  53.2169 195.5477 0001413 104.2460 255.8689 15.08834450 83724,6917.897,95.438,540.74,538.785,0.0
51870.0,STARLINK-3591,PAYLOAD,2023-08-29 05:43:56,15.08840043,0.0001311,53.2162,194.6545,94.3909,265.7233,6.126e-05,6.87e-06,0.0,0 STARLINK-3591,1 51870U 22022U   23241.23884709  .00000687  00000-0  61260-4 0  9992,2 51870  53.2162 194.6545 0001311  94.3909 265.7233 15.08840043 83750,6917.88,95.438,540.652,538.838,0.0
51870.0,STARLINK-3591,PAYLOAD,2023-08-29 13:40:52,15.08834445,0.000132,53.2161,193.1677,95.8835,264.2308,1.7212e-05,-1.4e-07,0.0,0 STARLINK-3591,1 51870U 22022U   23241.57005264 -.00000014  00000-0  17212-4 0  9993,2 51870  53.2161 193.1677 0001320  95.8835 264.2308 15.08834445 83805,6917.897,95.438,540.676,538.849,0.0
51870.0,STARLINK-3591,PAYLOAD,2023-08-30 00:48:34,15.0883873,0.0001229,53.2161,191.0862,91.493,268.6203,-1.1063e-05,-4.64e-06,0.0,0 STARLINK-3591,1 51870U 22022U   23242.03373301 -.00000464  00000-0 -11063-4 0  9993,2 51870  53.2161 191.0862 0001229  91.4930 268.6203 15.08838730 83874,6917.884,95.438,540.599,538.899,0.0
51870.0,STARLINK-3591,PAYLOAD,2023-08-30 07:10:05,15.08890474,9.58e-05,53.2165,189.897,92.6152,267.495,-0.00056721,-9.316e-05,0.0,0 STARLINK-3591,1 51870U 22022U   23242.29867449 -.00009316  00000-0 -56721-3 0  9996,2 51870  53.2165 189.8970 0000958  92.6152 267.4950 15.08890474 83914,6917.726,95.434,540.254,538.928,0.0
51870.0,STARLINK-3591,PAYLOAD,2023-08-30 13:31:39,15.08839042,6.51e-05,53.2171,188.7088,115.6246,244.4813,2.5338e-06,-2.47e-06,0.0,0 STARLINK-3591,1 51870U 22022U   23242.56364948 -.00000247  00000-0  25338-5 0  9997,2 51870  53.2171 188.7088 0000651 115.6246 244.4813 15.08839042 83950,6917.883,95.438,540.199,539.298,0.0
51870.0,STARLINK-3591,PAYLOAD,2023-08-31 05:25:30,15.0884077,0.0001498,53.2166,185.7338,90.1974,269.919,6.5801e-05,7.59e-06,0.0,0 STARLINK-3591,1 51870U 22022U   23243.22605182  .00000759  00000-0  65801-4 0  9994,2 51870  53.2166 185.7338 0001498  90.1974 269.9190 15.08840770 84056,6917.878,95.438,540.779,538.707,0.0
51870.0,STARLINK-3591,PAYLOAD,2023-09-01 02:05:37,15.08758126,4.55e-05,53.2177,181.8697,3.2604,356.8391,-0.0005627,-9.211e-05,0.0,0 STARLINK-3591,1 51870U 22022U   23244.08723921 -.00009211  00000-0 -56270-3 0  9994,2 51870  53.2177 181.8697 0000455   3.2604 356.8391 15.08758126 84186,6918.131,95.443,540.31,539.681,0.0
51870.0,STARLINK-3591,PAYLOAD,2023-09-01 11:37:50,15.0883773,0.0001381,53.2175,180.0856,71.8007,288.3136,3.1776e-05,2.18e-06,0.0,0 STARLINK-3591,1 51870U 22022U   23244.48461618  .00000218  00000-0  31776-4 0  9991,2 51870  53.2175 180.0856 0001381  71.8007 288.3136 15.08837730 84241,6917.887,95.438,540.708,538.797,0.0
51870.0,STARLINK-3591,PAYLOAD,2023-09-01 19:34:46,15.08841302,0.0001218,53.2192,178.598,83.0609,277.0521,5.6036e-05,6.04e-06,0.0,0 STARLINK-3591,1 51870U 22022U   23244.81581334  .00000604  00000-0  56036-4 0  9991,2 51870  53.2192 178.5980 0001218  83.0609 277.0521 15.08841302 84290,6917.876,95.437,540.584,538.899,0.0
51870.0,STARLINK-3591,PAYLOAD,2023-09-01 22:45:32,15.08845942,0.0001353,53.2158,178.004,81.6547,278.4599,0.00011757,1.584e-05,0.0,0 STARLINK-3591,1 51870U 22022U   23244.94828784  .00001584  00000-0  11757-3 0  9996,2 51870  53.2158 178.0040 0001353  81.6547 278.4599 15.08845942 84316,6917.862,95.437,540.663,538.791,0.0
51870.0,STARLINK-3591,PAYLOAD,2023-09-02 19:25:32,15.08847668,9.89e-05,53.2179,174.1373,62.2185,297.8907,4.6464e-05,4.52e-06,0.0,0 STARLINK-3591,1 51870U 22022U   23245.80940911  .00000452  00000-0  46464-4 0  9996,2 51870  53.2179 174.1373 0000989  62.2185 297.8907 15.08847668 84441,6917.857,95.437,540.406,539.038,0.0
51870.0,STARLINK-3591,PAYLOAD,2023-09-03 01:47:05,15.08848495,0.0001299,53.216,172.9462,88.765,271.3491,2.0027e-05,3.1e-07,0.0,0 STARLINK-3591,1 51870U 22022U   23246.07436721  .00000031  00000-0  20027-4 0  9995,2 51870  53.2160 172.9462 0001299  88.7650 271.3491 15.08848495 84489,6917.854,95.437,540.618,538.821,0.0
51870.0,STARLINK-3591,PAYLOAD,2023-09-03 04:57:51,15.08847606,0.00014,53.2154,172.3506,75.7576,284.3572,9.4496e-05,1.217e-05,0.0,0 STARLINK-3591,1 51870U 22022U   23246.20684566  .00001217  00000-0  94496-4 0  9990,2 51870  53.2154 172.3506 0001400  75.7576 284.3572 15.08847606 84502,6917.857,95.437,540.691,538.754,0.0
51870.0,STARLINK-3591,PAYLOAD,2023-09-04 01:37:53,15.08834253,0.0001212,53.2163,168.4859,90.4166,269.6965,-7.0885e-06,-4.01e-06,0.0,0 STARLINK-3591,1 51870U 22022U   23247.06797734 -.00000401  00000-0 -70885-5 0  9990,2 51870  53.2163 168.4859 0001212  90.4166 269.6965 15.08834253 84639,6917.898,95.438,540.601,538.925,0.0
